[{"OBJECT_NAME":"JILIN-1 GAOFEN 03D12","OBJECT_ID":"2022-019T","EPOCH":"2026-03-09T23:55:09.134400","MEAN_MOTION":15.69542894,"ECCENTRICITY":0.00024096,"INCLINATION":97.3665,"RA_OF_ASC_NODE":160.1413,"ARG_OF_PERICENTER":153.7003,"MEAN_ANOMALY":206.4382,"EPHEMERIS_TYPE":0,"CLASSIFICATION_TYPE":"U","NORAD_CAT_ID":51841,"ELEMENT_SET_NO":999,"REV_AT_EPOCH":22441,"BSTAR":0.0010852586,"MEAN_MOTION_DOT":0.00129444,"MEAN_MOTION_DDOT":0},{"OBJECT_NAME":"STARLINK-11099 [DTC]","OBJECT_ID":"2024-088J","EPOCH":"2026-03-09T22:48:37.323072","MEAN_MOTION":15.69724014,"ECCENTRICITY":0.00011756,"INCLINATION":53.1581,"RA_OF_ASC_NODE":324.9499,"ARG_OF_PERICENTER":124.4327,"MEAN_ANOMALY":235.6802,"EPHEMERIS_TYPE":0,"CLASSIFICATION_TYPE":"U","NORAD_CAT_ID":59716,"ELEMENT_SET_NO":999,"REV_AT_EPOCH":10631,"BSTAR":5.8223048e-5,"MEAN_MOTION_DOT":6.474e-5,"MEAN_MOTION_DDOT":0}]
